{
  "norad_id": 51771,
  "name": "STARLINK-3614",
  "history": [
    {
      "epoch": "2026-03-28T18:04:35.212512",
      "apogee_km": 540.6372192030785,
      "perigee_km": 538.8388484092902,
      "latitude_deg": 22.373891529140497,
      "longitude_deg": 149.40579168009572,
      "semi_major_axis_km": 6917.875033806184,
      "eccentricity": 0.00012998,
      "inclination_deg": 53.2169,
      "raan_deg": 253.5287,
      "arg_perigee_deg": 91.8116,
      "mean_anomaly_deg": 268.3025,
      "mean_motion_rev_day": 15.08841752
    },
    {
      "epoch": "2026-03-29T03:36:54.234144",
      "apogee_km": 540.6090972999727,
      "perigee_km": 538.8685597415179,
      "latitude_deg": 25.97031313631256,
      "longitude_deg": -172.43973983987235,
      "semi_major_axis_km": 6917.875828520745,
      "eccentricity": 0.0001258,
      "inclination_deg": 53.2166,
      "raan_deg": 251.7446,
      "arg_perigee_deg": 91.5938,
      "mean_anomaly_deg": 268.5199,
      "mean_motion_rev_day": 15.08841492
    }
  ]
}